NORAD_CAT_ID,OBJECT_NAME,OBJECT_TYPE,EPOCH,MEAN_MOTION,ECCENTRICITY,INCLINATION,RA_OF_ASC_NODE,ARG_OF_PERICENTER,MEAN_ANOMALY,BSTAR,MEAN_MOTION_DOT,MEAN_MOTION_DDOT,TLE_LINE0,TLE_LINE1,TLE_LINE2,SEMIMAJOR_AXIS,PERIOD,APOGEE,PERIGEE,DECAYED
50171.0,STARLINK-3286,PAYLOAD,2024-07-25 12:44:57,15.08844964,0.0001748,53.218,27.4221,93.8811,266.2381,0.00034268,5.171e-05,0.0,0 STARLINK-3286,1 50171U 21125R   24207.53122112  .00005171  00000-0  34268-3 0  9997,2 50171  53.2180  27.4221 0001748  93.8811 266.2381 15.08844964146719,6917.865,95.437,540.939,538.521,0.0
50171.0,STARLINK-3286,PAYLOAD,2024-07-26 11:00:21,15.08839894,2.09e-05,53.2177,23.2616,111.557,248.5445,0.00011949,1.615e-05,0.0,0 STARLINK-3286,1 50171U 21125R   24208.45858312  .00001615  00000-0  11949-3 0  9997,2 50171  53.2177  23.2616 0000209 111.5570 248.5445 15.08839894146853,6917.881,95.438,539.89,539.601,0.0
50171.0,STARLINK-3286,PAYLOAD,2024-07-26 18:57:16,15.08858906,5.24e-05,53.2138,21.7727,345.4484,14.6493,-5.3004e-06,-3.72e-06,0.0,0 STARLINK-3286,1 50171U 21125R   24208.78977027 -.00000372  00000-0 -53004-5 0  9999,2 50171  53.2138  21.7727 0000524 345.4484  14.6493 15.08858906146904,6917.823,95.436,540.05,539.325,0.0
50171.0,STARLINK-3286,PAYLOAD,2024-07-26 22:08:02,15.08870097,9.06e-05,53.2164,21.1795,85.7358,274.3738,0.00055642,8.586e-05,0.0,0 STARLINK-3286,1 50171U 21125R   24208.92224856  .00008586  00000-0  55642-3 0  9991,2 50171  53.2164  21.1795 0000906  85.7358 274.3738 15.08870097147419,6917.788,95.436,540.28,539.027,0.0
50171.0,STARLINK-3286,PAYLOAD,2024-07-27 10:51:07,15.08855682,0.000166,53.224,18.8042,101.2156,258.9023,0.00020977,3.053e-05,0.0,0 STARLINK-3286,1 50171U 21125R   24209.45217069  .00003053  00000-0  20977-3 0  9995,2 50171  53.2240  18.8042 0001660 101.2156 258.9023 15.08855682147003,6917.832,95.437,540.846,538.549,0.0
50171.0,STARLINK-3286,PAYLOAD,2024-07-27 15:37:16,15.08846127,3.32e-05,53.2148,17.9064,63.2157,296.8869,6.1336e-06,-1.9e-06,0.0,0 STARLINK-3286,1 50171U 21125R   24209.65089091 -.00000190  00000-0  61336-5 0  9995,2 50171  53.2148  17.9064 0000332  63.2157 296.8869 15.08846127147527,6917.862,95.437,539.956,539.497,0.0
50171.0,STARLINK-3286,PAYLOAD,2024-07-28 04:20:22,15.08840397,3.48e-05,53.216,15.5283,102.9916,257.1115,-6.5607e-05,-1.331e-05,0.0,0 STARLINK-3286,1 50171U 21125R   24210.18081237 -.00001331  00000-0 -65607-4 0  9992,2 50171  53.2160  15.5283 0000348 102.9916 257.1115 15.08840397147111,6917.879,95.438,539.985,539.503,0.0
50171.0,STARLINK-3286,PAYLOAD,2024-07-28 18:38:50,15.08848077,0.0001114,53.2171,12.8527,84.7908,275.3212,0.00012583,1.716e-05,0.0,0 STARLINK-3286,1 50171U 21125R   24210.77697340  .00001716  00000-0  12583-3 0  9994,2 50171  53.2171  12.8527 0001114  84.7908 275.3212 15.08848077147690,6917.856,95.437,540.491,538.95,0.0
50171.0,STARLINK-3286,PAYLOAD,2024-07-29 04:11:09,15.08849478,0.0001277,53.2176,11.0709,85.4583,274.6555,0.00050215,7.715e-05,0.0,0 STARLINK-3286,1 50171U 21125R   24211.17441519  .00007715  00000-0  50215-3 0  9993,2 50171  53.2176  11.0709 0001277  85.4583 274.6555 15.08849478147266,6917.851,95.437,540.6,538.833,0.0
50171.0,STARLINK-3286,PAYLOAD,2024-07-29 20:05:00,15.0884866,0.0001141,53.2169,8.0947,103.4168,256.6952,0.00031707,4.763e-05,0.0,0 STARLINK-3286,1 50171U 21125R   24211.83681370  .00004763  00000-0  31707-3 0  9992,2 50171  53.2169   8.0947 0001141 103.4168 256.6952 15.08848660147362,6917.854,95.437,540.508,538.93,0.0
50171.0,STARLINK-3286,PAYLOAD,2024-07-29 21:40:23,15.08851973,0.0001147,53.2175,7.7993,92.833,267.2794,0.00039805,6.055e-05,0.0,0 STARLINK-3286,1 50171U 21125R   24211.90305286  .00006055  00000-0  39805-3 0  9992,2 50171  53.2175   7.7993 0001147  92.8330 267.2794 15.08851973147862,6917.844,95.437,540.502,538.915,0.0
50171.0,STARLINK-3286,PAYLOAD,2024-07-30 04:01:56,15.08853757,0.0001249,53.2183,6.611,84.0932,276.0203,0.00042763,6.527e-05,0.0,0 STARLINK-3286,1 50171U 21125R   24212.16801159  .00006527  00000-0  42763-3 0  9992,2 50171  53.2183   6.6110 0001249  84.0932 276.0203 15.08853757147904,6917.838,95.437,540.567,538.839,0.0
50171.0,STARLINK-3286,PAYLOAD,2024-07-30 19:55:47,15.08844152,0.0001737,53.2184,3.6356,94.9257,265.1934,5.7648e-05,6.3e-06,0.0,0 STARLINK-3286,1 50171U 21125R   24212.83041306  .00000630  00000-0  57648-4 0  9994,2 50171  53.2184   3.6356 0001737  94.9257 265.1934 15.08844152147512,6917.868,95.437,540.934,538.531,0.0
50171.0,STARLINK-3286,PAYLOAD,2024-07-31 15:00:25,15.08837588,0.0001672,53.218,0.0635,119.7692,240.3466,2.2106e-05,6.4e-07,0.0,0 STARLINK-3286,1 50171U 21125R   24213.62529587  .00000064  00000-0  22106-4 0  9996,2 50171  53.2180   0.0635 0001672 119.7692 240.3466 15.08837588148124,6917.888,95.438,540.909,538.596,0.0
50171.0,STARLINK-3286,PAYLOAD,2024-07-31 16:35:48,15.08834418,0.0001296,53.2178,359.7717,91.5681,268.5459,-1.6973e-05,-5.58e-06,0.0,0 STARLINK-3286,1 50171U 21125R   24213.69153905 -.00000558  00000-0 -16973-4 0  9995,2 50171  53.2178 359.7717 0001296  91.5681 268.5459 15.08834418148137,6917.897,95.438,540.659,538.866,0.0
50171.0,STARLINK-3286,PAYLOAD,2024-08-01 10:05:03,15.0884304,0.0001272,53.2175,356.4981,92.5184,267.5954,0.00023533,3.46e-05,0.0,0 STARLINK-3286,1 50171U 21125R   24214.42017879  .00003460  00000-0  23533-3 0  9998,2 50171  53.2175 356.4981 0001272  92.5184 267.5954 15.08843040148246,6917.871,95.437,540.616,538.856,0.0
50171.0,STARLINK-3286,PAYLOAD,2024-08-01 16:26:35,15.08850911,0.0001373,53.2175,355.3102,92.8994,267.2155,0.00039464,6e-05,0.0,0 STARLINK-3286,1 50171U 21125R   24214.68513614  .00006000  00000-0  39464-3 0  9997,2 50171  53.2175 355.3102 0001373  92.8994 267.2155 15.08850911147797,6917.847,95.437,540.662,538.762,0.0
50171.0,STARLINK-3286,PAYLOAD,2024-08-02 01:58:53,15.08873612,0.0001352,53.2187,353.5252,94.8737,265.2409,0.00058199,8.995e-05,0.0,0 STARLINK-3286,1 50171U 21125R   24215.08256365  .00008995  00000-0  58199-3 0  9990,2 50171  53.2187 353.5252 0001352  94.8737 265.2409 15.08873612147850,6917.778,95.435,540.578,538.707,0.0
50171.0,STARLINK-3286,PAYLOAD,2024-08-02 13:06:36,15.08835717,0.0001554,53.2188,351.4446,90.6081,269.5089,-0.0001991,-3.455e-05,0.0,0 STARLINK-3286,1 50171U 21125R   24215.54625720 -.00003455  00000-0 -19910-3 0  9992,2 50171  53.2188 351.4446 0001554  90.6081 269.5089 15.08835717147926,6917.893,95.438,540.834,538.683,0.0
50171.0,STARLINK-3286,PAYLOAD,2024-08-02 14:41:59,15.08835,0.0001567,53.2187,351.147,89.2497,270.8675,-0.00027381,-4.642e-05,0.0,0 STARLINK-3286,1 50171U 21125R   24215.61249567 -.00004642  00000-0 -27381-3 0  9991,2 50171  53.2187 351.1470 0001567  89.2497 270.8675 15.08835000148425,6917.896,95.438,540.845,538.677,0.0
50171.0,STARLINK-3286,PAYLOAD,2024-08-02 16:17:22,15.08838918,0.0001472,53.2194,350.8511,88.7246,271.3915,-2.0391e-06,-3.2e-06,0.0,0 STARLINK-3286,1 50171U 21125R   24215.67873530 -.00000320  00000-0 -20391-5 0  9995,2 50171  53.2194 350.8511 0001472  88.7246 271.3915 15.08838918148431,6917.884,95.438,540.767,538.73,0.0
50171.0,STARLINK-3286,PAYLOAD,2024-08-03 01:49:41,15.08845199,0.0001499,53.2193,349.0672,88.8769,271.2395,0.00099805,0.00015634,0.0,0 STARLINK-3286,1 50171U 21125R   24216.07617803  .00015634  00000-0  99805-3 0  9995,2 50171  53.2193 349.0672 0001499  88.8769 271.2395 15.08845199148001,6917.864,95.437,540.766,538.693,0.0
50171.0,STARLINK-3286,PAYLOAD,2024-08-03 12:57:24,15.08834672,0.0001986,53.2197,346.9856,97.5541,262.5677,0.00044391,6.783e-05,0.0,0 STARLINK-3286,1 50171U 21125R   24216.53986348  .00006783  00000-0  44391-3 0  9994,2 50171  53.2197 346.9856 0001986  97.5541 262.5677 15.08834672148078,6917.897,95.438,541.136,538.388,0.0
50171.0,STARLINK-3286,PAYLOAD,2024-08-03 14:32:47,15.08834616,0.0001891,53.2202,346.6894,103.4081,256.7122,0.00085724,0.00013379,0.0,0 STARLINK-3286,1 50171U 21125R   24216.60610400  .00013379  00000-0  85724-3 0  9999,2 50171  53.2202 346.6894 0001891 103.4081 256.7122 15.08834616148578,6917.897,95.438,541.07,538.454,0.0
50171.0,STARLINK-3286,PAYLOAD,2024-08-03 17:43:33,15.08845658,0.0001462,53.2186,346.0928,86.9763,273.1396,0.0019008,0.00030097,0.0,0 STARLINK-3286,1 50171U 21125R   24216.73858347  .00030097  00000-0  19008-2 0  9994,2 50171  53.2186 346.0928 0001462  86.9763 273.1396 15.08845658148593,6917.863,95.437,540.739,538.717,0.0
50171.0,STARLINK-3286,PAYLOAD,2024-08-04 01:40:29,15.08860025,0.0001532,53.2189,344.6057,87.687,272.4298,0.0016627,0.00026287,0.0,0 STARLINK-3286,1 50171U 21125R   24217.06978111  .00026287  00000-0  16627-2 0  9993,2 50171  53.2189 344.6057 0001532  87.6870 272.4298 15.08860025148158,6917.819,95.436,540.744,538.624,0.0
50171.0,STARLINK-3286,PAYLOAD,2024-08-04 12:48:11,15.08846616,0.0001493,53.2175,342.5239,97.1248,262.9914,0.0013343,0.00021015,0.0,0 STARLINK-3286,1 50171U 21125R   24217.53346334  .00021015  00000-0  13343-2 0  9997,2 50171  53.2175 342.5239 0001493  97.1248 262.9914 15.08846616148220,6917.86,95.437,540.758,538.692,0.0
50171.0,STARLINK-3286,PAYLOAD,2024-08-04 14:23:34,15.08847037,0.0001436,53.2175,342.2268,92.4598,267.6559,0.0015464,0.00024413,0.0,0 STARLINK-3286,1 50171U 21125R   24217.59970303  .00024413  00000-0  15464-2 0  9993,2 50171  53.2175 342.2268 0001436  92.4598 267.6559 15.08847037148722,6917.859,95.437,540.717,538.73,0.0
50171.0,STARLINK-3286,PAYLOAD,2024-08-04 17:34:20,15.08860971,0.0001386,53.2173,341.6322,91.469,268.6461,0.0025026,0.00039789,0.0,0 STARLINK-3286,1 50171U 21125R   24217.73218106  .00039789  00000-0  25026-2 0  9992,2 50171  53.2173 341.6322 0001386  91.4690 268.6461 15.08860971148747,6917.816,95.436,540.64,538.722,0.0
50171.0,STARLINK-3286,PAYLOAD,2024-08-05 01:31:15,15.08923463,0.0001428,53.217,340.1397,78.0845,282.0308,0.0046944,0.00075396,0.0,0 STARLINK-3286,1 50171U 21125R   24218.06336916  .00075396  00000-0  46944-2 0  9995,2 50171  53.2170 340.1397 0001428  78.0845 282.0308 15.08923463148308,6917.625,95.432,540.478,538.502,0.0
